STARLINK-31527          
1 59018U 24036W   26068.31629496 -.00001743  00000+0 -46739-4 0  9999
2 59018  53.1588  80.0367 0001284  85.6358 274.4789 15.30193496115266
TRANSPORTER-12 OBJECT AZ
1 62656U 25009AZ  26068.71026235  .00016057  00000+0  54903-3 0  9991
2 62656  97.3981 151.9913 0000987  45.3581 314.7740 15.30349724 63792
